[
    {
       "name": "Andorra",
       "native": "Andorra",
       "callingCode": "376",
       "code": "EU",
       "capital": "Andorra la Vella",
       "currency": "EUR",
       "languages": [
         "ca"
       ]
     },
    {
       "name": "United Arab Emirates",
       "native": "دولة الإمارات العربية المتحدة",
       "callingCode": "971",
       "code": "AS",
       "capital": "Abu Dhabi",
       "currency": "AED",
       "languages": [
         "ar"
       ]
     },
    {
       "name": "Afghanistan",
       "native": "افغانستان",
       "callingCode": "93",
       "code": "AS",
       "capital": "Kabul",
       "currency": "AFN",
       "languages": [
         "ps",
         "uz",
         "tk"
       ]
     },
    {
       "name": "Antigua and Barbuda",
       "native": "Antigua and Barbuda",
       "callingCode": "1268",
       "code": "NA",
       "capital": "Saint John's",
       "currency": "XCD",
       "languages": [
         "en"
       ]
     },
    {
       "name": "Anguilla",
       "native": "Anguilla",
       "callingCode": "1264",
       "code": "NA",
       "capital": "The Valley",
       "currency": "XCD",
       "languages": [
         "en"
       ]
     },
    {
       "name": "Albania",
       "native": "Shqipëria",
       "callingCode": "355",
       "code": "EU",
       "capital": "Tirana",
       "currency": "ALL",
       "languages": [
         "sq"
       ]
     },
    {
       "name": "Armenia",
       "native": "Հայաստան",
       "callingCode": "374",
       "code": "AS",
       "capital": "Yerevan",
       "currency": "AMD",
       "languages": [
         "hy",
         "ru"
       ]
     },
    {
       "name": "Angola",
       "native": "Angola",
       "callingCode": "244",
       "code": "AF",
       "capital": "Luanda",
       "currency": "AOA",
       "languages": [
         "pt"
       ]
     },
    {
       "name": "Antarctica",
       "native": "Antarctica",
       "callingCode": "672",
       "code": "AN",
       "capital": "",
       "currency": "",
       "languages": []
     },
    {
       "name": "Argentina",
       "native": "Argentina",
       "callingCode": "54",
       "code": "SA",
       "capital": "Buenos Aires",
       "currency": "ARS",
       "languages": [
         "es",
         "gn"
       ]
     },
    {
       "name": "American Samoa",
       "native": "American Samoa",
       "callingCode": "1684",
       "code": "OC",
       "capital": "Pago Pago",
       "currency": "USD",
       "languages": [
         "en",
         "sm"
       ]
     },
    {
       "name": "Austria",
       "native": "Österreich",
       "callingCode": "43",
       "code": "EU",
       "capital": "Vienna",
       "currency": "EUR",
       "languages": [
         "de"
       ]
     },
    {
       "name": "Australia",
       "native": "Australia",
       "callingCode": "61",
       "code": "OC",
       "capital": "Canberra",
       "currency": "AUD",
       "languages": [
         "en"
       ]
     },
    {
       "name": "Aruba",
       "native": "Aruba",
       "callingCode": "297",
       "code": "NA",
       "capital": "Oranjestad",
       "currency": "AWG",
       "languages": [
         "nl",
         "pa"
       ]
     },
    {
       "name": "Åland",
       "native": "Åland",
       "callingCode": "358",
       "code": "EU",
       "capital": "Mariehamn",
       "currency": "EUR",
       "languages": [
         "sv"
       ]
     },
    {
       "name": "Azerbaijan",
       "native": "Azərbaycan",
       "callingCode": "994",
       "code": "AS",
       "capital": "Baku",
       "currency": "AZN",
       "languages": [
         "az"
       ]
     },
    {
       "name": "Bosnia and Herzegovina",
       "native": "Bosna i Hercegovina",
       "callingCode": "387",
       "code": "EU",
       "capital": "Sarajevo",
       "currency": "BAM",
       "languages": [
         "bs",
         "hr",
         "sr"
       ]
     },
    {
       "name": "Barbados",
       "native": "Barbados",
       "callingCode": "1246",
       "code": "NA",
       "capital": "Bridgetown",
       "currency": "BBD",
       "languages": [
         "en"
       ]
     },
    {
       "name": "Bangladesh",
       "native": "Bangladesh",
       "callingCode": "880",
       "code": "AS",
       "capital": "Dhaka",
       "currency": "BDT",
       "languages": [
         "bn"
       ]
     },
    {
       "name": "Belgium",
       "native": "België",
       "callingCode": "32",
       "code": "EU",
       "capital": "Brussels",
       "currency": "EUR",
       "languages": [
         "nl",
         "fr",
         "de"
       ]
     },
    {
       "name": "Burkina Faso",
       "native": "Burkina Faso",
       "callingCode": "226",
       "code": "AF",
       "capital": "Ouagadougou",
       "currency": "XOF",
       "languages": [
         "fr",
         "ff"
       ]
     },
    {
       "name": "Bulgaria",
       "native": "България",
       "callingCode": "359",
       "code": "EU",
       "capital": "Sofia",
       "currency": "BGN",
       "languages": [
         "bg"
       ]
     },
    {
       "name": "Bahrain",
       "native": "‏البحرين",
       "callingCode": "973",
       "code": "AS",
       "capital": "Manama",
       "currency": "BHD",
       "languages": [
         "ar"
       ]
     },
    {
       "name": "Burundi",
       "native": "Burundi",
       "callingCode": "257",
       "code": "AF",
       "capital": "Bujumbura",
       "currency": "BIF",
       "languages": [
         "fr",
         "rn"
       ]
     },
    {
       "name": "Benin",
       "native": "Bénin",
       "callingCode": "229",
       "code": "AF",
       "capital": "Porto-Novo",
       "currency": "XOF",
       "languages": [
         "fr"
       ]
     },
    {
       "name": "Saint Barthélemy",
       "native": "Saint-Barthélemy",
       "callingCode": "590",
       "code": "NA",
       "capital": "Gustavia",
       "currency": "EUR",
       "languages": [
         "fr"
       ]
     },
    {
       "name": "Bermuda",
       "native": "Bermuda",
       "callingCode": "1441",
       "code": "NA",
       "capital": "Hamilton",
       "currency": "BMD",
       "languages": [
         "en"
       ]
     },
    {
       "name": "Brunei",
       "native": "Negara Brunei Darussalam",
       "callingCode": "673",
       "code": "AS",
       "capital": "Bandar Seri Begawan",
       "currency": "BND",
       "languages": [
         "ms"
       ]
     },
    {
       "name": "Bolivia",
       "native": "Bolivia",
       "callingCode": "591",
       "code": "SA",
       "capital": "Sucre",
       "currency": "BOB,BOV",
       "languages": [
         "es",
         "ay",
         "qu"
       ]
     },
    {
       "name": "Bonaire",
       "native": "Bonaire",
       "callingCode": "5997",
       "code": "NA",
       "capital": "Kralendijk",
       "currency": "USD",
       "languages": [
         "nl"
       ]
     },
    {
       "name": "Brazil",
       "native": "Brasil",
       "callingCode": "55",
       "code": "SA",
       "capital": "Brasília",
       "currency": "BRL",
       "languages": [
         "pt"
       ]
     },
    {
       "name": "Bahamas",
       "native": "Bahamas",
       "callingCode": "1242",
       "code": "NA",
       "capital": "Nassau",
       "currency": "BSD",
       "languages": [
         "en"
       ]
     },
    {
       "name": "Bhutan",
       "native": "ʼbrug-yul",
       "callingCode": "975",
       "code": "AS",
       "capital": "Thimphu",
       "currency": "BTN,INR",
       "languages": [
         "dz"
       ]
     },
    {
       "name": "Bouvet Island",
       "native": "Bouvetøya",
       "callingCode": "47",
       "code": "AN",
       "capital": "",
       "currency": "NOK",
       "languages": [
         "no",
         "nb",
         "nn"
       ]
     },
    {
       "name": "Botswana",
       "native": "Botswana",
       "callingCode": "267",
       "code": "AF",
       "capital": "Gaborone",
       "currency": "BWP",
       "languages": [
         "en",
         "tn"
       ]
     },
    {
       "name": "Belarus",
       "native": "Белару́сь",
       "callingCode": "375",
       "code": "EU",
       "capital": "Minsk",
       "currency": "BYN",
       "languages": [
         "be",
         "ru"
       ]
     },
    {
       "name": "Belize",
       "native": "Belize",
       "callingCode": "501",
       "code": "NA",
       "capital": "Belmopan",
       "currency": "BZD",
       "languages": [
         "en",
         "es"
       ]
     },
    {
       "name": "Canada",
       "native": "Canada",
       "callingCode": "1",
       "code": "NA",
       "capital": "Ottawa",
       "currency": "CAD",
       "languages": [
         "en",
         "fr"
       ]
     },
    {
       "name": "Cocos [Keeling] Islands",
       "native": "Cocos (Keeling) Islands",
       "callingCode": "61",
       "code": "AS",
       "capital": "West Island",
       "currency": "AUD",
       "languages": [
         "en"
       ]
     },
    {
       "name": "Democratic Republic of the Congo",
       "native": "République démocratique du Congo",
       "callingCode": "243",
       "code": "AF",
       "capital": "Kinshasa",
       "currency": "CDF",
       "languages": [
         "fr",
         "ln",
         "kg",
         "sw",
         "lu"
       ]
     },
    {
       "name": "Central African Republic",
       "native": "Ködörösêse tî Bêafrîka",
       "callingCode": "236",
       "code": "AF",
       "capital": "Bangui",
       "currency": "XAF",
       "languages": [
         "fr",
         "sg"
       ]
     },
    {
       "name": "Republic of the Congo",
       "native": "République du Congo",
       "callingCode": "242",
       "code": "AF",
       "capital": "Brazzaville",
       "currency": "XAF",
       "languages": [
         "fr",
         "ln"
       ]
     },
    {
       "name": "Switzerland",
       "native": "Schweiz",
       "callingCode": "41",
       "code": "EU",
       "capital": "Bern",
       "currency": "CHE,CHF,CHW",
       "languages": [
         "de",
         "fr",
         "it"
       ]
     },
    {
       "name": "Ivory Coast",
       "native": "Côte d'Ivoire",
       "callingCode": "225",
       "code": "AF",
       "capital": "Yamoussoukro",
       "currency": "XOF",
       "languages": [
         "fr"
       ]
     },
    {
       "name": "Cook Islands",
       "native": "Cook Islands",
       "callingCode": "682",
       "code": "OC",
       "capital": "Avarua",
       "currency": "NZD",
       "languages": [
         "en"
       ]
     },
    {
       "name": "Chile",
       "native": "Chile",
       "callingCode": "56",
       "code": "SA",
       "capital": "Santiago",
       "currency": "CLF,CLP",
       "languages": [
         "es"
       ]
     },
    {
       "name": "Cameroon",
       "native": "Cameroon",
       "callingCode": "237",
       "code": "AF",
       "capital": "Yaoundé",
       "currency": "XAF",
       "languages": [
         "en",
         "fr"
       ]
     },
    {
       "name": "China",
       "native": "中国",
       "callingCode": "86",
       "code": "AS",
       "capital": "Beijing",
       "currency": "CNY",
       "languages": [
         "zh"
       ]
     },
    {
       "name": "Colombia",
       "native": "Colombia",
       "callingCode": "57",
       "code": "SA",
       "capital": "Bogotá",
       "currency": "COP",
       "languages": [
         "es"
       ]
     },
    {
       "name": "Costa Rica",
       "native": "Costa Rica",
       "callingCode": "506",
       "code": "NA",
       "capital": "San José",
       "currency": "CRC",
       "languages": [
         "es"
       ]
     },
    {
       "name": "Cuba",
       "native": "Cuba",
       "callingCode": "53",
       "code": "NA",
       "capital": "Havana",
       "currency": "CUC,CUP",
       "languages": [
         "es"
       ]
     },
    {
       "name": "Cape Verde",
       "native": "Cabo Verde",
       "callingCode": "238",
       "code": "AF",
       "capital": "Praia",
       "currency": "CVE",
       "languages": [
         "pt"
       ]
     },
    {
       "name": "Curacao",
       "native": "Curaçao",
       "callingCode": "5999",
       "code": "NA",
       "capital": "Willemstad",
       "currency": "ANG",
       "languages": [
         "nl",
         "pa",
         "en"
       ]
     },
    {
       "name": "Christmas Island",
       "native": "Christmas Island",
       "callingCode": "61",
       "code": "AS",
       "capital": "Flying Fish Cove",
       "currency": "AUD",
       "languages": [
         "en"
       ]
     },
    {
       "name": "Cyprus",
       "native": "Κύπρος",
       "callingCode": "357",
       "code": "EU",
       "capital": "Nicosia",
       "currency": "EUR",
       "languages": [
         "el",
         "tr",
         "hy"
       ]
     },
    {
       "name": "Czech Republic",
       "native": "Česká republika",
       "callingCode": "420",
       "code": "EU",
       "capital": "Prague",
       "currency": "CZK",
       "languages": [
         "cs",
         "sk"
       ]
     },
    {
       "name": "Germany",
       "native": "Deutschland",
       "callingCode": "49",
       "code": "EU",
       "capital": "Berlin",
       "currency": "EUR",
       "languages": [
         "de"
       ]
     },
    {
       "name": "Djibouti",
       "native": "Djibouti",
       "callingCode": "253",
       "code": "AF",
       "capital": "Djibouti",
       "currency": "DJF",
       "languages": [
         "fr",
         "ar"
       ]
     },
    {
       "name": "Denmark",
       "native": "Danmark",
       "callingCode": "45",
       "code": "EU",
       "capital": "Copenhagen",
       "currency": "DKK",
       "languages": [
         "da"
       ]
     },
    {
       "name": "Dominica",
       "native": "Dominica",
       "callingCode": "1767",
       "code": "NA",
       "capital": "Roseau",
       "currency": "XCD",
       "languages": [
         "en"
       ]
     },
    {
       "name": "Dominican Republic",
       "native": "República Dominicana",
       "callingCode": "1809,1829,1849",
       "code": "NA",
       "capital": "Santo Domingo",
       "currency": "DOP",
       "languages": [
         "es"
       ]
     },
    {
       "name": "Algeria",
       "native": "الجزائر",
       "callingCode": "213",
       "code": "AF",
       "capital": "Algiers",
       "currency": "DZD",
       "languages": [
         "ar"
       ]
     },
    {
       "name": "Ecuador",
       "native": "Ecuador",
       "callingCode": "593",
       "code": "SA",
       "capital": "Quito",
       "currency": "USD",
       "languages": [
         "es"
       ]
     },
    {
       "name": "Estonia",
       "native": "Eesti",
       "callingCode": "372",
       "code": "EU",
       "capital": "Tallinn",
       "currency": "EUR",
       "languages": [
         "et"
       ]
     },
    {
       "name": "Egypt",
       "native": "مصر‎",
       "callingCode": "20",
       "code": "AF",
       "capital": "Cairo",
       "currency": "EGP",
       "languages": [
         "ar"
       ]
     },
    {
       "name": "Western Sahara",
       "native": "الصحراء الغربية",
       "callingCode": "212",
       "code": "AF",
       "capital": "El Aaiún",
       "currency": "MAD,DZD,MRU",
       "languages": [
         "es"
       ]
     },
    {
       "name": "Eritrea",
       "native": "ኤርትራ",
       "callingCode": "291",
       "code": "AF",
       "capital": "Asmara",
       "currency": "ERN",
       "languages": [
         "ti",
         "ar",
         "en"
       ]
     },
    {
       "name": "Spain",
       "native": "España",
       "callingCode": "34",
       "code": "EU",
       "capital": "Madrid",
       "currency": "EUR",
       "languages": [
         "es",
         "eu",
         "ca",
         "gl",
         "oc"
       ]
     },
    {
       "name": "Ethiopia",
       "native": "ኢትዮጵያ",
       "callingCode": "251",
       "code": "AF",
       "capital": "Addis Ababa",
       "currency": "ETB",
       "languages": [
         "am"
       ]
     },
    {
       "name": "Finland",
       "native": "Suomi",
       "callingCode": "358",
       "code": "EU",
       "capital": "Helsinki",
       "currency": "EUR",
       "languages": [
         "fi",
         "sv"
       ]
     },
    {
       "name": "Fiji",
       "native": "Fiji",
       "callingCode": "679",
       "code": "OC",
       "capital": "Suva",
       "currency": "FJD",
       "languages": [
         "en",
         "fj",
         "hi",
         "ur"
       ]
     },
    {
       "name": "Falkland Islands",
       "native": "Falkland Islands",
       "callingCode": "500",
       "code": "SA",
       "capital": "Stanley",
       "currency": "FKP",
       "languages": [
         "en"
       ]
     },
    {
       "name": "Micronesia",
       "native": "Micronesia",
       "callingCode": "691",
       "code": "OC",
       "capital": "Palikir",
       "currency": "USD",
       "languages": [
         "en"
       ]
     },
    {
       "name": "Faroe Islands",
       "native": "Føroyar",
       "callingCode": "298",
       "code": "EU",
       "capital": "Tórshavn",
       "currency": "DKK",
       "languages": [
         "fo"
       ]
     },
    {
       "name": "France",
       "native": "France",
       "callingCode": "33",
       "code": "EU",
       "capital": "Paris",
       "currency": "EUR",
       "languages": [
         "fr"
       ]
     },
    {
       "name": "Gabon",
       "native": "Gabon",
       "callingCode": "241",
       "code": "AF",
       "capital": "Libreville",
       "currency": "XAF",
       "languages": [
         "fr"
       ]
     },
    {
       "name": "United Kingdom",
       "native": "United Kingdom",
       "callingCode": "44",
       "code": "EU",
       "capital": "London",
       "currency": "GBP",
       "languages": [
         "en"
       ]
     },
    {
       "name": "Grenada",
       "native": "Grenada",
       "callingCode": "1473",
       "code": "NA",
       "capital": "St. George's",
       "currency": "XCD",
       "languages": [
         "en"
       ]
     },
    {
       "name": "Georgia",
       "native": "საქართველო",
       "callingCode": "995",
       "code": "AS",
       "capital": "Tbilisi",
       "currency": "GEL",
       "languages": [
         "ka"
       ]
     },
    {
       "name": "French Guiana",
       "native": "Guyane française",
       "callingCode": "594",
       "code": "SA",
       "capital": "Cayenne",
       "currency": "EUR",
       "languages": [
         "fr"
       ]
     },
    {
       "name": "Guernsey",
       "native": "Guernsey",
       "callingCode": "44",
       "code": "EU",
       "capital": "St. Peter Port",
       "currency": "GBP",
       "languages": [
         "en",
         "fr"
       ]
     },
    {
       "name": "Ghana",
       "native": "Ghana",
       "callingCode": "233",
       "code": "AF",
       "capital": "Accra",
       "currency": "GHS",
       "languages": [
         "en"
       ]
     },
    {
       "name": "Gibraltar",
       "native": "Gibraltar",
       "callingCode": "350",
       "code": "EU",
       "capital": "Gibraltar",
       "currency": "GIP",
       "languages": [
         "en"
       ]
     },
    {
       "name": "Greenland",
       "native": "Kalaallit Nunaat",
       "callingCode": "299",
       "code": "NA",
       "capital": "Nuuk",
       "currency": "DKK",
       "languages": [
         "kl"
       ]
     },
    {
       "name": "Gambia",
       "native": "Gambia",
       "callingCode": "220",
       "code": "AF",
       "capital": "Banjul",
       "currency": "GMD",
       "languages": [
         "en"
       ]
     },
    {
       "name": "Guinea",
       "native": "Guinée",
       "callingCode": "224",
       "code": "AF",
       "capital": "Conakry",
       "currency": "GNF",
       "languages": [
         "fr",
         "ff"
       ]
     },
    {
       "name": "Guadeloupe",
       "native": "Guadeloupe",
       "callingCode": "590",
       "code": "NA",
       "capital": "Basse-Terre",
       "currency": "EUR",
       "languages": [
         "fr"
       ]
     },
    {
       "name": "Equatorial Guinea",
       "native": "Guinea Ecuatorial",
       "callingCode": "240",
       "code": "AF",
       "capital": "Malabo",
       "currency": "XAF",
       "languages": [
         "es",
         "fr"
       ]
     },
    {
       "name": "Greece",
       "native": "Ελλάδα",
       "callingCode": "30",
       "code": "EU",
       "capital": "Athens",
       "currency": "EUR",
       "languages": [
         "el"
       ]
     },
    {
       "name": "South Georgia and the South Sandwich Islands",
       "native": "South Georgia",
       "callingCode": "500",
       "code": "AN",
       "capital": "King Edward Point",
       "currency": "GBP",
       "languages": [
         "en"
       ]
     },
    {
       "name": "Guatemala",
       "native": "Guatemala",
       "callingCode": "502",
       "code": "NA",
       "capital": "Guatemala City",
       "currency": "GTQ",
       "languages": [
         "es"
       ]
     },
    {
       "name": "Guam",
       "native": "Guam",
       "callingCode": "1671",
       "code": "OC",
       "capital": "Hagåtña",
       "currency": "USD",
       "languages": [
         "en",
         "ch",
         "es"
       ]
     },
    {
       "name": "Guinea-Bissau",
       "native": "Guiné-Bissau",
       "callingCode": "245",
       "code": "AF",
       "capital": "Bissau",
       "currency": "XOF",
       "languages": [
         "pt"
       ]
     },
    {
       "name": "Guyana",
       "native": "Guyana",
       "callingCode": "592",
       "code": "SA",
       "capital": "Georgetown",
       "currency": "GYD",
       "languages": [
         "en"
       ]
     },
    {
       "name": "Hong Kong",
       "native": "香港",
       "callingCode": "852",
       "code": "AS",
       "capital": "City of Victoria",
       "currency": "HKD",
       "languages": [
         "zh",
         "en"
       ]
     },
    {
       "name": "Heard Island and McDonald Islands",
       "native": "Heard Island and McDonald Islands",
       "callingCode": "61",
       "code": "AN",
       "capital": "",
       "currency": "AUD",
       "languages": [
         "en"
       ]
     },
    {
       "name": "Honduras",
       "native": "Honduras",
       "callingCode": "504",
       "code": "NA",
       "capital": "Tegucigalpa",
       "currency": "HNL",
       "languages": [
         "es"
       ]
     },
    {
       "name": "Croatia",
       "native": "Hrvatska",
       "callingCode": "385",
       "code": "EU",
       "capital": "Zagreb",
       "currency": "HRK",
       "languages": [
         "hr"
       ]
     },
    {
       "name": "Haiti",
       "native": "Haïti",
       "callingCode": "509",
       "code": "NA",
       "capital": "Port-au-Prince",
       "currency": "HTG,USD",
       "languages": [
         "fr",
         "ht"
       ]
     },
    {
       "name": "Hungary",
       "native": "Magyarország",
       "callingCode": "36",
       "code": "EU",
       "capital": "Budapest",
       "currency": "HUF",
       "languages": [
         "hu"
       ]
     },
    {
       "name": "Indonesia",
       "native": "Indonesia",
       "callingCode": "62",
       "code": "AS",
       "capital": "Jakarta",
       "currency": "IDR",
       "languages": [
         "id"
       ]
     },
    {
       "name": "Ireland",
       "native": "Éire",
       "callingCode": "353",
       "code": "EU",
       "capital": "Dublin",
       "currency": "EUR",
       "languages": [
         "ga",
         "en"
       ]
     },
    {
       "name": "Israel",
       "native": "יִשְׂרָאֵל",
       "callingCode": "972",
       "code": "AS",
       "capital": "Jerusalem",
       "currency": "ILS",
       "languages": [
         "he",
         "ar"
       ]
     },
    {
       "name": "Isle of Man",
       "native": "Isle of Man",
       "callingCode": "44",
       "code": "EU",
       "capital": "Douglas",
       "currency": "GBP",
       "languages": [
         "en",
         "gv"
       ]
     },
    {
       "name": "India",
       "native": "भारत",
       "callingCode": "91",
       "code": "AS",
       "capital": "New Delhi",
       "currency": "INR",
       "languages": [
         "hi",
         "en"
       ]
     },
    {
       "name": "British Indian Ocean Territory",
       "native": "British Indian Ocean Territory",
       "callingCode": "246",
       "code": "AS",
       "capital": "Diego Garcia",
       "currency": "USD",
       "languages": [
         "en"
       ]
     },
    {
       "name": "Iraq",
       "native": "العراق",
       "callingCode": "964",
       "code": "AS",
       "capital": "Baghdad",
       "currency": "IQD",
       "languages": [
         "ar",
         "ku"
       ]
     },
    {
       "name": "Iran",
       "native": "ایران",
       "callingCode": "98",
       "code": "AS",
       "capital": "Tehran",
       "currency": "IRR",
       "languages": [
         "fa"
       ]
     },
    {
       "name": "Iceland",
       "native": "Ísland",
       "callingCode": "354",
       "code": "EU",
       "capital": "Reykjavik",
       "currency": "ISK",
       "languages": [
         "is"
       ]
     },
    {
       "name": "Italy",
       "native": "Italia",
       "callingCode": "39",
       "code": "EU",
       "capital": "Rome",
       "currency": "EUR",
       "languages": [
         "it"
       ]
     },
    {
       "name": "Jersey",
       "native": "Jersey",
       "callingCode": "44",
       "code": "EU",
       "capital": "Saint Helier",
       "currency": "GBP",
       "languages": [
         "en",
         "fr"
       ]
     },
    {
       "name": "Jamaica",
       "native": "Jamaica",
       "callingCode": "1876",
       "code": "NA",
       "capital": "Kingston",
       "currency": "JMD",
       "languages": [
         "en"
       ]
     },
    {
       "name": "Jordan",
       "native": "الأردن",
       "callingCode": "962",
       "code": "AS",
       "capital": "Amman",
       "currency": "JOD",
       "languages": [
         "ar"
       ]
     },
    {
       "name": "Japan",
       "native": "日本",
       "callingCode": "81",
       "code": "AS",
       "capital": "Tokyo",
       "currency": "JPY",
       "languages": [
         "ja"
       ]
     },
    {
       "name": "Kenya",
       "native": "Kenya",
       "callingCode": "254",
       "code": "AF",
       "capital": "Nairobi",
       "currency": "KES",
       "languages": [
         "en",
         "sw"
       ]
     },
    {
       "name": "Kyrgyzstan",
       "native": "Кыргызстан",
       "callingCode": "996",
       "code": "AS",
       "capital": "Bishkek",
       "currency": "KGS",
       "languages": [
         "ky",
         "ru"
       ]
     },
    {
       "name": "Cambodia",
       "native": "Kâmpŭchéa",
       "callingCode": "855",
       "code": "AS",
       "capital": "Phnom Penh",
       "currency": "KHR",
       "languages": [
         "km"
       ]
     },
    {
       "name": "Kiribati",
       "native": "Kiribati",
       "callingCode": "686",
       "code": "OC",
       "capital": "South Tarawa",
       "currency": "AUD",
       "languages": [
         "en"
       ]
     },
    {
       "name": "Comoros",
       "native": "Komori",
       "callingCode": "269",
       "code": "AF",
       "capital": "Moroni",
       "currency": "KMF",
       "languages": [
         "ar",
         "fr"
       ]
     },
    {
       "name": "Saint Kitts and Nevis",
       "native": "Saint Kitts and Nevis",
       "callingCode": "1869",
       "code": "NA",
       "capital": "Basseterre",
       "currency": "XCD",
       "languages": [
         "en"
       ]
     },
    {
       "name": "North Korea",
       "native": "북한",
       "callingCode": "850",
       "code": "AS",
       "capital": "Pyongyang",
       "currency": "KPW",
       "languages": [
         "ko"
       ]
     },
    {
       "name": "South Korea",
       "native": "대한민국",
       "callingCode": "82",
       "code": "AS",
       "capital": "Seoul",
       "currency": "KRW",
       "languages": [
         "ko"
       ]
     },
    {
       "name": "Kuwait",
       "native": "الكويت",
       "callingCode": "965",
       "code": "AS",
       "capital": "Kuwait City",
       "currency": "KWD",
       "languages": [
         "ar"
       ]
     },
    {
       "name": "Cayman Islands",
       "native": "Cayman Islands",
       "callingCode": "1345",
       "code": "NA",
       "capital": "George Town",
       "currency": "KYD",
       "languages": [
         "en"
       ]
     },
    {
       "name": "Kazakhstan",
       "native": "Қазақстан",
       "callingCode": "76,77",
       "code": "AS",
       "capital": "Astana",
       "currency": "KZT",
       "languages": [
         "kk",
         "ru"
       ]
     },
    {
       "name": "Laos",
       "native": "ສປປລາວ",
       "callingCode": "856",
       "code": "AS",
       "capital": "Vientiane",
       "currency": "LAK",
       "languages": [
         "lo"
       ]
     },
    {
       "name": "Lebanon",
       "native": "لبنان",
       "callingCode": "961",
       "code": "AS",
       "capital": "Beirut",
       "currency": "LBP",
       "languages": [
         "ar",
         "fr"
       ]
     },
    {
       "name": "Saint Lucia",
       "native": "Saint Lucia",
       "callingCode": "1758",
       "code": "NA",
       "capital": "Castries",
       "currency": "XCD",
       "languages": [
         "en"
       ]
     },
    {
       "name": "Liechtenstein",
       "native": "Liechtenstein",
       "callingCode": "423",
       "code": "EU",
       "capital": "Vaduz",
       "currency": "CHF",
       "languages": [
         "de"
       ]
     },
    {
       "name": "Sri Lanka",
       "native": "śrī laṃkāva",
       "callingCode": "94",
       "code": "AS",
       "capital": "Colombo",
       "currency": "LKR",
       "languages": [
         "si",
         "ta"
       ]
     },
    {
       "name": "Liberia",
       "native": "Liberia",
       "callingCode": "231",
       "code": "AF",
       "capital": "Monrovia",
       "currency": "LRD",
       "languages": [
         "en"
       ]
     },
    {
       "name": "Lesotho",
       "native": "Lesotho",
       "callingCode": "266",
       "code": "AF",
       "capital": "Maseru",
       "currency": "LSL,ZAR",
       "languages": [
         "en",
         "st"
       ]
     },
    {
       "name": "Lithuania",
       "native": "Lietuva",
       "callingCode": "370",
       "code": "EU",
       "capital": "Vilnius",
       "currency": "EUR",
       "languages": [
         "lt"
       ]
     },
    {
       "name": "Luxembourg",
       "native": "Luxembourg",
       "callingCode": "352",
       "code": "EU",
       "capital": "Luxembourg",
       "currency": "EUR",
       "languages": [
         "fr",
         "de",
         "lb"
       ]
     },
    {
       "name": "Latvia",
       "native": "Latvija",
       "callingCode": "371",
       "code": "EU",
       "capital": "Riga",
       "currency": "EUR",
       "languages": [
         "lv"
       ]
     },
    {
       "name": "Libya",
       "native": "‏ليبيا",
       "callingCode": "218",
       "code": "AF",
       "capital": "Tripoli",
       "currency": "LYD",
       "languages": [
         "ar"
       ]
     },
    {
       "name": "Morocco",
       "native": "المغرب",
       "callingCode": "212",
       "code": "AF",
       "capital": "Rabat",
       "currency": "MAD",
       "languages": [
         "ar"
       ]
     },
    {
       "name": "Monaco",
       "native": "Monaco",
       "callingCode": "377",
       "code": "EU",
       "capital": "Monaco",
       "currency": "EUR",
       "languages": [
         "fr"
       ]
     },
    {
       "name": "Moldova",
       "native": "Moldova",
       "callingCode": "373",
       "code": "EU",
       "capital": "Chișinău",
       "currency": "MDL",
       "languages": [
         "ro"
       ]
     },
    {
       "name": "Montenegro",
       "native": "Црна Гора",
       "callingCode": "382",
       "code": "EU",
       "capital": "Podgorica",
       "currency": "EUR",
       "languages": [
         "sr",
         "bs",
         "sq",
         "hr"
       ]
     },
    {
       "name": "Saint Martin",
       "native": "Saint-Martin",
       "callingCode": "590",
       "code": "NA",
       "capital": "Marigot",
       "currency": "EUR",
       "languages": [
         "en",
         "fr",
         "nl"
       ]
     },
    {
       "name": "Madagascar",
       "native": "Madagasikara",
       "callingCode": "261",
       "code": "AF",
       "capital": "Antananarivo",
       "currency": "MGA",
       "languages": [
         "fr",
         "mg"
       ]
     },
    {
       "name": "Marshall Islands",
       "native": "M̧ajeļ",
       "callingCode": "692",
       "code": "OC",
       "capital": "Majuro",
       "currency": "USD",
       "languages": [
         "en",
         "mh"
       ]
     },
    {
       "name": "North Macedonia",
       "native": "Северна Македонија",
       "callingCode": "389",
       "code": "EU",
       "capital": "Skopje",
       "currency": "MKD",
       "languages": [
         "mk"
       ]
     },
    {
       "name": "Mali",
       "native": "Mali",
       "callingCode": "223",
       "code": "AF",
       "capital": "Bamako",
       "currency": "XOF",
       "languages": [
         "fr"
       ]
     },
    {
       "name": "Myanmar [Burma]",
       "native": "မြန်မာ",
       "callingCode": "95",
       "code": "AS",
       "capital": "Naypyidaw",
       "currency": "MMK",
       "languages": [
         "my"
       ]
     },
    {
       "name": "Mongolia",
       "native": "Монгол улс",
       "callingCode": "976",
       "code": "AS",
       "capital": "Ulan Bator",
       "currency": "MNT",
       "languages": [
         "mn"
       ]
     },
    {
       "name": "Macao",
       "native": "澳門",
       "callingCode": "853",
       "code": "AS",
       "capital": "",
       "currency": "MOP",
       "languages": [
         "zh",
         "pt"
       ]
     },
    {
       "name": "Northern Mariana Islands",
       "native": "Northern Mariana Islands",
       "callingCode": "1670",
       "code": "OC",
       "capital": "Saipan",
       "currency": "USD",
       "languages": [
         "en",
         "ch"
       ]
     },
    {
       "name": "Martinique",
       "native": "Martinique",
       "callingCode": "596",
       "code": "NA",
       "capital": "Fort-de-France",
       "currency": "EUR",
       "languages": [
         "fr"
       ]
     },
    {
       "name": "Mauritania",
       "native": "موريتانيا",
       "callingCode": "222",
       "code": "AF",
       "capital": "Nouakchott",
       "currency": "MRU",
       "languages": [
         "ar"
       ]
     },
    {
       "name": "Montserrat",
       "native": "Montserrat",
       "callingCode": "1664",
       "code": "NA",
       "capital": "Plymouth",
       "currency": "XCD",
       "languages": [
         "en"
       ]
     },
    {
       "name": "Malta",
       "native": "Malta",
       "callingCode": "356",
       "code": "EU",
       "capital": "Valletta",
       "currency": "EUR",
       "languages": [
         "mt",
         "en"
       ]
     },
    {
       "name": "Mauritius",
       "native": "Maurice",
       "callingCode": "230",
       "code": "AF",
       "capital": "Port Louis",
       "currency": "MUR",
       "languages": [
         "en"
       ]
     },
    {
       "name": "Maldives",
       "native": "Maldives",
       "callingCode": "960",
       "code": "AS",
       "capital": "Malé",
       "currency": "MVR",
       "languages": [
         "dv"
       ]
     },
    {
       "name": "Malawi",
       "native": "Malawi",
       "callingCode": "265",
       "code": "AF",
       "capital": "Lilongwe",
       "currency": "MWK",
       "languages": [
         "en",
         "ny"
       ]
     },
    {
       "name": "Mexico",
       "native": "México",
       "callingCode": "52",
       "code": "NA",
       "capital": "Mexico City",
       "currency": "MXN",
       "languages": [
         "es"
       ]
     },
    {
       "name": "Malaysia",
       "native": "Malaysia",
       "callingCode": "60",
       "code": "AS",
       "capital": "Kuala Lumpur",
       "currency": "MYR",
       "languages": [
         "ms"
       ]
     },
    {
       "name": "Mozambique",
       "native": "Moçambique",
       "callingCode": "258",
       "code": "AF",
       "capital": "Maputo",
       "currency": "MZN",
       "languages": [
         "pt"
       ]
     },
    {
       "name": "Namibia",
       "native": "Namibia",
       "callingCode": "264",
       "code": "AF",
       "capital": "Windhoek",
       "currency": "NAD,ZAR",
       "languages": [
         "en",
         "af"
       ]
     },
    {
       "name": "New Caledonia",
       "native": "Nouvelle-Calédonie",
       "callingCode": "687",
       "code": "OC",
       "capital": "Nouméa",
       "currency": "XPF",
       "languages": [
         "fr"
       ]
     },
    {
       "name": "Niger",
       "native": "Niger",
       "callingCode": "227",
       "code": "AF",
       "capital": "Niamey",
       "currency": "XOF",
       "languages": [
         "fr"
       ]
     },
    {
       "name": "Norfolk Island",
       "native": "Norfolk Island",
       "callingCode": "672",
       "code": "OC",
       "capital": "Kingston",
       "currency": "AUD",
       "languages": [
         "en"
       ]
     },
    {
       "name": "Nigeria",
       "native": "Nigeria",
       "callingCode": "234",
       "code": "AF",
       "capital": "Abuja",
       "currency": "NGN",
       "languages": [
         "en"
       ]
     },
    {
       "name": "Nicaragua",
       "native": "Nicaragua",
       "callingCode": "505",
       "code": "NA",
       "capital": "Managua",
       "currency": "NIO",
       "languages": [
         "es"
       ]
     },
    {
       "name": "Netherlands",
       "native": "Nederland",
       "callingCode": "31",
       "code": "EU",
       "capital": "Amsterdam",
       "currency": "EUR",
       "languages": [
         "nl"
       ]
     },
    {
       "name": "Norway",
       "native": "Norge",
       "callingCode": "47",
       "code": "EU",
       "capital": "Oslo",
       "currency": "NOK",
       "languages": [
         "no",
         "nb",
         "nn"
       ]
     },
    {
       "name": "Nepal",
       "native": "नपल",
       "callingCode": "977",
       "code": "AS",
       "capital": "Kathmandu",
       "currency": "NPR",
       "languages": [
         "ne"
       ]
     },
    {
       "name": "Nauru",
       "native": "Nauru",
       "callingCode": "674",
       "code": "OC",
       "capital": "Yaren",
       "currency": "AUD",
       "languages": [
         "en",
         "na"
       ]
     },
    {
       "name": "Niue",
       "native": "Niuē",
       "callingCode": "683",
       "code": "OC",
       "capital": "Alofi",
       "currency": "NZD",
       "languages": [
         "en"
       ]
     },
    {
       "name": "New Zealand",
       "native": "New Zealand",
       "callingCode": "64",
       "code": "OC",
       "capital": "Wellington",
       "currency": "NZD",
       "languages": [
         "en",
         "mi"
       ]
     },
    {
       "name": "Oman",
       "native": "عمان",
       "callingCode": "968",
       "code": "AS",
       "capital": "Muscat",
       "currency": "OMR",
       "languages": [
         "ar"
       ]
     },
    {
       "name": "Panama",
       "native": "Panamá",
       "callingCode": "507",
       "code": "NA",
       "capital": "Panama City",
       "currency": "PAB,USD",
       "languages": [
         "es"
       ]
     },
    {
       "name": "Peru",
       "native": "Perú",
       "callingCode": "51",
       "code": "SA",
       "capital": "Lima",
       "currency": "PEN",
       "languages": [
         "es"
       ]
     },
    {
       "name": "French Polynesia",
       "native": "Polynésie française",
       "callingCode": "689",
       "code": "OC",
       "capital": "Papeetē",
       "currency": "XPF",
       "languages": [
         "fr"
       ]
     },
    {
       "name": "Papua New Guinea",
       "native": "Papua Niugini",
       "callingCode": "675",
       "code": "OC",
       "capital": "Port Moresby",
       "currency": "PGK",
       "languages": [
         "en"
       ]
     },
    {
       "name": "Philippines",
       "native": "Pilipinas",
       "callingCode": "63",
       "code": "AS",
       "capital": "Manila",
       "currency": "PHP",
       "languages": [
         "en"
       ]
     },
    {
       "name": "Pakistan",
       "native": "Pakistan",
       "callingCode": "92",
       "code": "AS",
       "capital": "Islamabad",
       "currency": "PKR",
       "languages": [
         "en",
         "ur"
       ]
     },
    {
       "name": "Poland",
       "native": "Polska",
       "callingCode": "48",
       "code": "EU",
       "capital": "Warsaw",
       "currency": "PLN",
       "languages": [
         "pl"
       ]
     },
    {
       "name": "Saint Pierre and Miquelon",
       "native": "Saint-Pierre-et-Miquelon",
       "callingCode": "508",
       "code": "NA",
       "capital": "Saint-Pierre",
       "currency": "EUR",
       "languages": [
         "fr"
       ]
     },
    {
       "name": "Pitcairn Islands",
       "native": "Pitcairn Islands",
       "callingCode": "64",
       "code": "OC",
       "capital": "Adamstown",
       "currency": "NZD",
       "languages": [
         "en"
       ]
     },
    {
       "name": "Puerto Rico",
       "native": "Puerto Rico",
       "callingCode": "1787,1939",
       "code": "NA",
       "capital": "San Juan",
       "currency": "USD",
       "languages": [
         "es",
         "en"
       ]
     },
    {
       "name": "Palestine",
       "native": "فلسطين",
       "callingCode": "970",
       "code": "AS",
       "capital": "Ramallah",
       "currency": "ILS",
       "languages": [
         "ar"
       ]
     },
    {
       "name": "Portugal",
       "native": "Portugal",
       "callingCode": "351",
       "code": "EU",
       "capital": "Lisbon",
       "currency": "EUR",
       "languages": [
         "pt"
       ]
     },
    {
       "name": "Palau",
       "native": "Palau",
       "callingCode": "680",
       "code": "OC",
       "capital": "Ngerulmud",
       "currency": "USD",
       "languages": [
         "en"
       ]
     },
    {
       "name": "Paraguay",
       "native": "Paraguay",
       "callingCode": "595",
       "code": "SA",
       "capital": "Asunción",
       "currency": "PYG",
       "languages": [
         "es",
         "gn"
       ]
     },
    {
       "name": "Qatar",
       "native": "قطر",
       "callingCode": "974",
       "code": "AS",
       "capital": "Doha",
       "currency": "QAR",
       "languages": [
         "ar"
       ]
     },
    {
       "name": "Réunion",
       "native": "La Réunion",
       "callingCode": "262",
       "code": "AF",
       "capital": "Saint-Denis",
       "currency": "EUR",
       "languages": [
         "fr"
       ]
     },
    {
       "name": "Romania",
       "native": "România",
       "callingCode": "40",
       "code": "EU",
       "capital": "Bucharest",
       "currency": "RON",
       "languages": [
         "ro"
       ]
     },
    {
       "name": "Serbia",
       "native": "Србија",
       "callingCode": "381",
       "code": "EU",
       "capital": "Belgrade",
       "currency": "RSD",
       "languages": [
         "sr"
       ]
     },
    {
       "name": "Russia",
       "native": "Россия",
       "callingCode": "7",
       "code": "EU",
       "capital": "Moscow",
       "currency": "RUB",
       "languages": [
         "ru"
       ]
     },
    {
       "name": "Rwanda",
       "native": "Rwanda",
       "callingCode": "250",
       "code": "AF",
       "capital": "Kigali",
       "currency": "RWF",
       "languages": [
         "rw",
         "en",
         "fr"
       ]
     },
    {
       "name": "Saudi Arabia",
       "native": "العربية السعودية",
       "callingCode": "966",
       "code": "AS",
       "capital": "Riyadh",
       "currency": "SAR",
       "languages": [
         "ar"
       ]
     },
    {
       "name": "Solomon Islands",
       "native": "Solomon Islands",
       "callingCode": "677",
       "code": "OC",
       "capital": "Honiara",
       "currency": "SBD",
       "languages": [
         "en"
       ]
     },
    {
       "name": "Seychelles",
       "native": "Seychelles",
       "callingCode": "248",
       "code": "AF",
       "capital": "Victoria",
       "currency": "SCR",
       "languages": [
         "fr",
         "en"
       ]
     },
    {
       "name": "Sudan",
       "native": "السودان",
       "callingCode": "249",
       "code": "AF",
       "capital": "Khartoum",
       "currency": "SDG",
       "languages": [
         "ar",
         "en"
       ]
     },
    {
       "name": "Sweden",
       "native": "Sverige",
       "callingCode": "46",
       "code": "EU",
       "capital": "Stockholm",
       "currency": "SEK",
       "languages": [
         "sv"
       ]
     },
    {
       "name": "Singapore",
       "native": "Singapore",
       "callingCode": "65",
       "code": "AS",
       "capital": "Singapore",
       "currency": "SGD",
       "languages": [
         "en",
         "ms",
         "ta",
         "zh"
       ]
     },
    {
       "name": "Saint Helena",
       "native": "Saint Helena",
       "callingCode": "290",
       "code": "AF",
       "capital": "Jamestown",
       "currency": "SHP",
       "languages": [
         "en"
       ]
     },
    {
       "name": "Slovenia",
       "native": "Slovenija",
       "callingCode": "386",
       "code": "EU",
       "capital": "Ljubljana",
       "currency": "EUR",
       "languages": [
         "sl"
       ]
     },
    {
       "name": "Svalbard and Jan Mayen",
       "native": "Svalbard og Jan Mayen",
       "callingCode": "4779",
       "code": "EU",
       "capital": "Longyearbyen",
       "currency": "NOK",
       "languages": [
         "no"
       ]
     },
    {
       "name": "Slovakia",
       "native": "Slovensko",
       "callingCode": "421",
       "code": "EU",
       "capital": "Bratislava",
       "currency": "EUR",
       "languages": [
         "sk"
       ]
     },
    {
       "name": "Sierra Leone",
       "native": "Sierra Leone",
       "callingCode": "232",
       "code": "AF",
       "capital": "Freetown",
       "currency": "SLL",
       "languages": [
         "en"
       ]
     },
    {
       "name": "San Marino",
       "native": "San Marino",
       "callingCode": "378",
       "code": "EU",
       "capital": "City of San Marino",
       "currency": "EUR",
       "languages": [
         "it"
       ]
     },
    {
       "name": "Senegal",
       "native": "Sénégal",
       "callingCode": "221",
       "code": "AF",
       "capital": "Dakar",
       "currency": "XOF",
       "languages": [
         "fr"
       ]
     },
    {
       "name": "Somalia",
       "native": "Soomaaliya",
       "callingCode": "252",
       "code": "AF",
       "capital": "Mogadishu",
       "currency": "SOS",
       "languages": [
         "so",
         "ar"
       ]
     },
    {
       "name": "Suriname",
       "native": "Suriname",
       "callingCode": "597",
       "code": "SA",
       "capital": "Paramaribo",
       "currency": "SRD",
       "languages": [
         "nl"
       ]
     },
    {
       "name": "South Sudan",
       "native": "South Sudan",
       "callingCode": "211",
       "code": "AF",
       "capital": "Juba",
       "currency": "SSP",
       "languages": [
         "en"
       ]
     },
    {
       "name": "São Tomé and Príncipe",
       "native": "São Tomé e Príncipe",
       "callingCode": "239",
       "code": "AF",
       "capital": "São Tomé",
       "currency": "STN",
       "languages": [
         "pt"
       ]
     },
    {
       "name": "El Salvador",
       "native": "El Salvador",
       "callingCode": "503",
       "code": "NA",
       "capital": "San Salvador",
       "currency": "SVC,USD",
       "languages": [
         "es"
       ]
     },
    {
       "name": "Sint Maarten",
       "native": "Sint Maarten",
       "callingCode": "1721",
       "code": "NA",
       "capital": "Philipsburg",
       "currency": "ANG",
       "languages": [
         "nl",
         "en"
       ]
     },
    {
       "name": "Syria",
       "native": "سوريا",
       "callingCode": "963",
       "code": "AS",
       "capital": "Damascus",
       "currency": "SYP",
       "languages": [
         "ar"
       ]
     },
    {
       "name": "Swaziland",
       "native": "Swaziland",
       "callingCode": "268",
       "code": "AF",
       "capital": "Lobamba",
       "currency": "SZL",
       "languages": [
         "en",
         "ss"
       ]
     },
    {
       "name": "Turks and Caicos Islands",
       "native": "Turks and Caicos Islands",
       "callingCode": "1649",
       "code": "NA",
       "capital": "Cockburn Town",
       "currency": "USD",
       "languages": [
         "en"
       ]
     },
    {
       "name": "Chad",
       "native": "Tchad",
       "callingCode": "235",
       "code": "AF",
       "capital": "N'Djamena",
       "currency": "XAF",
       "languages": [
         "fr",
         "ar"
       ]
     },
    {
       "name": "French Southern Territories",
       "native": "Territoire des Terres australes et antarctiques fr",
       "callingCode": "262",
       "code": "AN",
       "capital": "Port-aux-Français",
       "currency": "EUR",
       "languages": [
         "fr"
       ]
     },
    {
       "name": "Togo",
       "native": "Togo",
       "callingCode": "228",
       "code": "AF",
       "capital": "Lomé",
       "currency": "XOF",
       "languages": [
         "fr"
       ]
     },
    {
       "name": "Thailand",
       "native": "ประเทศไทย",
       "callingCode": "66",
       "code": "AS",
       "capital": "Bangkok",
       "currency": "THB",
       "languages": [
         "th"
       ]
     },
    {
       "name": "Tajikistan",
       "native": "Тоҷикистон",
       "callingCode": "992",
       "code": "AS",
       "capital": "Dushanbe",
       "currency": "TJS",
       "languages": [
         "tg",
         "ru"
       ]
     },
    {
       "name": "Tokelau",
       "native": "Tokelau",
       "callingCode": "690",
       "code": "OC",
       "capital": "Fakaofo",
       "currency": "NZD",
       "languages": [
         "en"
       ]
     },
    {
       "name": "East Timor",
       "native": "Timor-Leste",
       "callingCode": "670",
       "code": "OC",
       "capital": "Dili",
       "currency": "USD",
       "languages": [
         "pt"
       ]
     },
    {
       "name": "Turkmenistan",
       "native": "Türkmenistan",
       "callingCode": "993",
       "code": "AS",
       "capital": "Ashgabat",
       "currency": "TMT",
       "languages": [
         "tk",
         "ru"
       ]
     },
    {
       "name": "Tunisia",
       "native": "تونس",
       "callingCode": "216",
       "code": "AF",
       "capital": "Tunis",
       "currency": "TND",
       "languages": [
         "ar"
       ]
     },
    {
       "name": "Tonga",
       "native": "Tonga",
       "callingCode": "676",
       "code": "OC",
       "capital": "Nuku'alofa",
       "currency": "TOP",
       "languages": [
         "en",
         "to"
       ]
     },
    {
       "name": "Turkey",
       "native": "Türkiye",
       "callingCode": "90",
       "code": "AS",
       "capital": "Ankara",
       "currency": "TRY",
       "languages": [
         "tr"
       ]
     },
    {
       "name": "Trinidad and Tobago",
       "native": "Trinidad and Tobago",
       "callingCode": "1868",
       "code": "NA",
       "capital": "Port of Spain",
       "currency": "TTD",
       "languages": [
         "en"
       ]
     },
    {
       "name": "Tuvalu",
       "native": "Tuvalu",
       "callingCode": "688",
       "code": "OC",
       "capital": "Funafuti",
       "currency": "AUD",
       "languages": [
         "en"
       ]
     },
    {
       "name": "Taiwan",
       "native": "臺灣",
       "callingCode": "886",
       "code": "AS",
       "capital": "Taipei",
       "currency": "TWD",
       "languages": [
         "zh"
       ]
     },
    {
       "name": "Tanzania",
       "native": "Tanzania",
       "callingCode": "255",
       "code": "AF",
       "capital": "Dodoma",
       "currency": "TZS",
       "languages": [
         "sw",
         "en"
       ]
     },
    {
       "name": "Ukraine",
       "native": "Україна",
       "callingCode": "380",
       "code": "EU",
       "capital": "Kyiv",
       "currency": "UAH",
       "languages": [
         "uk"
       ]
     },
    {
       "name": "Uganda",
       "native": "Uganda",
       "callingCode": "256",
       "code": "AF",
       "capital": "Kampala",
       "currency": "UGX",
       "languages": [
         "en",
         "sw"
       ]
     },
    {
       "name": "U.S. Minor Outlying Islands",
       "native": "United States Minor Outlying Islands",
       "callingCode": "1",
       "code": "OC",
       "capital": "",
       "currency": "USD",
       "languages": [
         "en"
       ]
     },
    {
       "name": "United States",
       "native": "United States",
       "callingCode": "1",
       "code": "NA",
       "capital": "Washington D.C.",
       "currency": "USD,USN,USS",
       "languages": [
         "en"
       ]
     },
    {
       "name": "Uruguay",
       "native": "Uruguay",
       "callingCode": "598",
       "code": "SA",
       "capital": "Montevideo",
       "currency": "UYI,UYU",
       "languages": [
         "es"
       ]
     },
    {
       "name": "Uzbekistan",
       "native": "O‘zbekiston",
       "callingCode": "998",
       "code": "AS",
       "capital": "Tashkent",
       "currency": "UZS",
       "languages": [
         "uz",
         "ru"
       ]
     },
    {
       "name": "Vatican City",
       "native": "Vaticano",
       "callingCode": "379",
       "code": "EU",
       "capital": "Vatican City",
       "currency": "EUR",
       "languages": [
         "it",
         "la"
       ]
     },
    {
       "name": "Saint Vincent and the Grenadines",
       "native": "Saint Vincent and the Grenadines",
       "callingCode": "1784",
       "code": "NA",
       "capital": "Kingstown",
       "currency": "XCD",
       "languages": [
         "en"
       ]
     },
    {
       "name": "Venezuela",
       "native": "Venezuela",
       "callingCode": "58",
       "code": "SA",
       "capital": "Caracas",
       "currency": "VES",
       "languages": [
         "es"
       ]
     },
    {
       "name": "British Virgin Islands",
       "native": "British Virgin Islands",
       "callingCode": "1284",
       "code": "NA",
       "capital": "Road Town",
       "currency": "USD",
       "languages": [
         "en"
       ]
     },
    {
       "name": "U.S. Virgin Islands",
       "native": "United States Virgin Islands",
       "callingCode": "1340",
       "code": "NA",
       "capital": "Charlotte Amalie",
       "currency": "USD",
       "languages": [
         "en"
       ]
     },
    {
       "name": "Vietnam",
       "native": "Việt Nam",
       "callingCode": "84",
       "code": "AS",
       "capital": "Hanoi",
       "currency": "VND",
       "languages": [
         "vi"
       ]
     },
    {
       "name": "Vanuatu",
       "native": "Vanuatu",
       "callingCode": "678",
       "code": "OC",
       "capital": "Port Vila",
       "currency": "VUV",
       "languages": [
         "bi",
         "en",
         "fr"
       ]
     },
    {
       "name": "Wallis and Futuna",
       "native": "Wallis et Futuna",
       "callingCode": "681",
       "code": "OC",
       "capital": "Mata-Utu",
       "currency": "XPF",
       "languages": [
         "fr"
       ]
     },
    {
       "name": "Samoa",
       "native": "Samoa",
       "callingCode": "685",
       "code": "OC",
       "capital": "Apia",
       "currency": "WST",
       "languages": [
         "sm",
         "en"
       ]
     },
    {
       "name": "Kosovo",
       "native": "Republika e Kosovës",
       "callingCode": "377,381,383,386",
       "code": "EU",
       "capital": "Pristina",
       "currency": "EUR",
       "languages": [
         "sq",
         "sr"
       ]
     },
    {
       "name": "Yemen",
       "native": "اليَمَن",
       "callingCode": "967",
       "code": "AS",
       "capital": "Sana'a",
       "currency": "YER",
       "languages": [
         "ar"
       ]
     },
    {
       "name": "Mayotte",
       "native": "Mayotte",
       "callingCode": "262",
       "code": "AF",
       "capital": "Mamoudzou",
       "currency": "EUR",
       "languages": [
         "fr"
       ]
     },
    {
       "name": "South Africa",
       "native": "South Africa",
       "callingCode": "27",
       "code": "AF",
       "capital": "Pretoria",
       "currency": "ZAR",
       "languages": [
         "af",
         "en",
         "nr",
         "st",
         "ss",
         "tn",
         "ts",
         "ve",
         "xh",
         "zu"
       ]
     },
    {
       "name": "Zambia",
       "native": "Zambia",
       "callingCode": "260",
       "code": "AF",
       "capital": "Lusaka",
       "currency": "ZMW",
       "languages": [
         "en"
       ]
     },
    {
       "name": "Zimbabwe",
       "native": "Zimbabwe",
       "callingCode": "263",
       "code": "AF",
       "capital": "Harare",
       "currency": "USD,ZAR,BWP,GBP,AUD,CNY,INR,JPY",
       "languages": [
         "en",
         "sn",
         "nd"
       ]
     }
   ]